[{"OBJECT_NAME":"STARLINK-34590","OBJECT_ID":"2025-139M","EPOCH":"2026-03-09T12:36:45.895680","MEAN_MOTION":15.30190641,"ECCENTRICITY":0.00012551,"INCLINATION":53.1577,"RA_OF_ASC_NODE":128.1794,"ARG_OF_PERICENTER":77.9254,"MEAN_ANOMALY":282.1887,"EPHEMERIS_TYPE":0,"CLASSIFICATION_TYPE":"U","NORAD_CAT_ID":64675,"ELEMENT_SET_NO":999,"REV_AT_EPOCH":4025,"BSTAR":0.0009494248,"MEAN_MOTION_DOT":0.00027857,"MEAN_MOTION_DDOT":0},{"OBJECT_NAME":"GEOSCAN 4 (RS92S4)","OBJECT_ID":"2025-155S","EPOCH":"2026-03-09T21:50:07.724832","MEAN_MOTION":15.30369837,"ECCENTRICITY":0.00070968,"INCLINATION":97.4465,"RA_OF_ASC_NODE":37.7626,"ARG_OF_PERICENTER":154.7045,"MEAN_ANOMALY":205.4544,"EPHEMERIS_TYPE":0,"CLASSIFICATION_TYPE":"U","NORAD_CAT_ID":64892,"ELEMENT_SET_NO":999,"REV_AT_EPOCH":6562,"BSTAR":0.00068609503,"MEAN_MOTION_DOT":0.00020121,"MEAN_MOTION_DDOT":0}]
